KUIPER-00027            
1 63740U 25088S   25213.87882239  .00019281  00000+0  51443-3 0  9993
2 63740  51.8733 359.0482 0003204 339.2389  20.8468 15.38141560 14902
KUIPER-00028            
1 63741U 25088T   25212.70035133  .00021139  00000+0  55787-3 0  9998
2 63741  51.8721   4.6450 0001564  62.8119 297.3028 15.38419610 15138
KUIPER-00029            
1 63742U 25088U   25212.69374066  .00019167  00000+0  52675-3 0  9999
2 63742  51.8706   5.3277 0004838  90.5337 269.6204 15.37224066 14656
KUIPER-00030            
1 63743U 25088V   25213.70785496  .00000657  00000+0  55913-4 0  9999
2 63743  51.8875   5.3520 0013083  77.2817 282.9621 15.11484820 15023
KUIPER-00031            
1 63744U 25088W   25213.70003606 -.00023998  00000+0 -62850-3 0  9998
2 63744  51.8696   0.0840 0000838 250.2236 109.8661 15.37762753 14813
KUIPER-00032            
1 63745U 25088X   25213.91668981 -.00245045  00000+0 -85496-2 0  9994
2 63745  51.8747 359.4533 0004035  61.7687 204.0735 15.30105963 15839
KUIPER-00033            
1 63746U 25088Y   25212.87281402  .00002382  00000+0  34228-3 0  9999
2 63746  51.9018  23.0549 0003207 152.3956 207.7177 14.79826327 14902
KUIPER-00034            
1 63747U 25088Z   25213.81078972  .00016753  00000+0  45027-3 0  9997
2 63747  51.8723 359.3393 0001576  99.8249 260.2916 15.38020019 14998
